{
  "norad_id": 54010,
  "name": "STARLINK-5127",
  "history": [
    {
      "epoch": "2026-03-28T19:07:28.615872Z",
      "apogee_km": 540.6710789742747,
      "perigee_km": 538.804774676516,
      "latitude_deg": 1.9704574707322677e-06,
      "longitude_deg": 4.837612728455774,
      "height_km": 540.7729880500133,
      "semi_major_axis_km": 6917.874926825395,
      "eccentricity": 0.00013489,
      "inclination_deg": 53.2153,
      "raan_deg": 117.919,
      "arg_perigee_deg": 98.6003,
      "mean_anomaly_deg": 261.5142,
      "mean_motion_rev_day": 15.08841787
    }
  ]
}